ONEWEB-0055             
1 45443U 20020V   22330.83655968  .00000196  00000+0  51590-3 0  9992
2 45443  87.8832 279.0594 0001935  86.0140 274.1209 13.11419026132448
ONEWEB-0093             
1 45444U 20020W   22330.81185444 -.00000503  00000+0 -14548-2 0  9993
2 45444  87.8822 279.0739 0001931  88.7526 271.3823 13.11415055132508
ONEWEB-0029             
1 45445U 20020X   22330.83319091  .00000006  00000+0 -19654-4 0  9995
2 45445  87.8826 279.0579 0001576  91.1721 268.9588 13.11412345132481
ONEWEB-0068             
1 45446U 20020Y   22330.80401766 -.00000369  00000+0 -10772-2 0  9997
2 45446  87.8821 279.0712 0001943  92.7931 267.3419 13.11414144132423
ONEWEB-0046             
1 45447U 20020Z   22330.80065330 -.00000221  00000+0 -66078-3 0  9999
2 45447  87.8821 279.0832 0001721  78.7612 281.3709 13.11416077132437
ONEWEB-0063             
1 45448U 20020AA  22330.82982185 -.00000134  00000+0 -41383-3 0  9993
2 45448  87.8819 279.0557 0001655  71.5212 288.6096 13.11418399132520
ONEWEB-0019             
1 45449U 20020AB  22330.80512658 -.00000382  00000+0 -11133-2 0  9990
2 45449  87.8826 279.0702 0001980  79.4460 280.6891 13.11412660132366
ONEWEB-0094             
1 45450U 20020AC  22330.80657225  .00000009  00000+0 -94520-5 0  9991
2 45450  87.9204 263.7795 0001993  77.4332 282.7022 13.17642448135324
ONEWEB-0087             
1 45451U 20020AD  22330.83881035  .00000215  00000+0  57127-3 0  9991
2 45451  87.8763 279.0777 0001565  93.6071 266.5236 13.11419113132418
ONEWEB-0082             
1 45452U 20020AE  22330.76476648  .00000268  00000+0  72127-3 0  9999
2 45452  87.8822 279.0431 0001930  96.7042 263.4305 13.11418406132495
ONEWEB-0050             
1 45453U 20020AF  22330.63050693  .00003130  00000+0  26166-3 0  9997
2 45453  87.5422 189.7191 0026743 345.9843  14.0644 14.97901294146540
ONEWEB-0034             
1 45454U 20020AG  22330.85899973  .00000431  00000+0  11806-2 0  9999
2 45454  87.8820 279.0440 0001685  86.0844 274.0477 13.11413568132429
ONEWEB-0060             
1 45455U 20020AH  22330.79056065  .00000227  00000+0  60498-3 0  9995
2 45455  87.8821 279.0716 0001774  82.8304 277.3026 13.11414839132373
ONEWEB-0086             
1 45456U 20020AJ  22330.80961568 -.00000510  00000+0 -14761-2 0  9999
2 45456  87.8823 279.0578 0001803  88.3857 271.7478 13.11416046132437
ONEWEB-0088             
1 45457U 20020AK  22330.78494557  .00000354  00000+0  96310-3 0  9991
2 45457  87.8816 279.0696 0001605  83.7545 276.3766 13.11414086132369
ONEWEB-0102             
1 47258U 20100A   22330.73923047 -.00000302  00000+0 -87550-3 0  9998
2 47258  87.8984 248.5659 0002074  77.1216 283.0144 13.12441211 94418
ONEWEB-0109             
1 47259U 20100B   22330.74982028  .00000079  00000+0  18540-3 0  9996
2 47259  87.8947 248.6098 0001737  77.9368 282.1955 13.12441557 94241
ONEWEB-0110             
1 47260U 20100C   22330.69687421  .00000379  00000+0  10175-2 0  9999
2 47260  87.8945 248.5942 0001959  80.9132 279.2218 13.12443752 94403
ONEWEB-0111             
1 47261U 20100D   22330.72862994 -.00000382  00000+0 -10979-2 0  9992
2 47261  87.8945 248.5708 0001980  78.3055 281.8296 13.12441102 94247
ONEWEB-0114             
1 47262U 20100E   22330.76041635  .00000367  00000+0  98585-3 0  9999
2 47262  87.8946 248.5884 0002316  66.4764 293.6608 13.12442886 94207
ONEWEB-0117             
1 47263U 20100F   22330.75194575  .00000204  00000+0  53033-3 0  9990
2 47263  87.8948 248.6147 0001735  81.7911 278.3414 13.12444338 94211
ONEWEB-0118             
1 47264U 20100G   22330.70746239  .00000131  00000+0  32786-3 0  9997
2 47264  87.8949 248.5763 0002061  52.8269 307.3048 13.12443221 94401
ONEWEB-0119             
1 47265U 20100H   22330.73499049 -.00000411  00000+0 -11776-2 0  9993
2 47265  87.8983 248.5677 0001733  79.3818 280.7506 13.12441801 94385
ONEWEB-0120             
1 47266U 20100J   22330.76568609  .00000427  00000+0  11528-2 0  9996
2 47266  87.8911 248.6460 0001982  68.9163 291.2178 13.12434674 94417
ONEWEB-0121             
1 47267U 20100K   22330.74769966  .00000005  00000+0 -22279-4 0  9994
2 47267  87.8885 248.6362 0001667  82.0516 278.0802 13.12445245 94321
ONEWEB-0122             
1 47268U 20100L   22330.74134404 -.00000202  00000+0 -59816-3 0  9994
2 47268  87.8947 248.5910 0001946  77.1247 283.0098 13.12442213 94230
ONEWEB-0123             
1 47269U 20100M   22330.73710608 -.00000314  00000+0 -90893-3 0  9994
2 47269  87.8975 248.5768 0001766  74.2529 285.8794 13.12444547 94374
ONEWEB-0124             
1 47270U 20100N   22330.72439227 -.00000365  00000+0 -10506-2 0  9998
2 47270  87.8945 248.6023 0001603  89.2281 270.9031 13.12444131 94254
ONEWEB-0125             
1 47271U 20100P   22330.70111999  .00000298  00000+0  79304-3 0  9995
2 47271  87.8945 248.6223 0001839  71.3898 288.7430 13.12442100 94315
ONEWEB-0126             
1 47272U 20100Q   22330.72758500 -.00000443  00000+0 -12657-2 0  9994
2 47272  87.8948 248.6126 0001980  73.0257 287.1088 13.12440506 94383
ONEWEB-0127             
1 47273U 20100R   22330.76677603  .00000486  00000+0  13167-2 0  9995
2 47273  87.8982 248.5505 0001799  74.9737 285.1591 13.12444819 94415
ONEWEB-0128             
1 47274U 20100S   22330.71169407 -.00000023  00000+0 -99153-4 0  9999
2 47274  87.8954 248.5808 0001974  86.6834 273.4521 13.12442048 94420
ONEWEB-0129             
1 47275U 20100T   22330.69265680  .00000445  00000+0  12004-2 0  9991
2 47275  87.8944 248.6350 0003352  57.4781 302.6671 13.12442750 94355
ONEWEB-0130             
1 47276U 20100U   22330.71804426 -.00000249  00000+0 -72854-3 0  9996
2 47276  87.8946 248.6220 0001801  78.6580 281.4751 13.12443038 94323
ONEWEB-0131             
1 47277U 20100V   22330.71593536 -.00000191  00000+0 -56691-3 0  9991
2 47277  87.8944 248.5680 0001723  81.6755 278.4569 13.12443236 94369
ONEWEB-0132             
1 47278U 20100W   22330.74558401 -.00000091  00000+0 -28772-3 0  9995
2 47278  87.8945 248.5629 0002008  71.3373 288.7973 13.12442048 94265
ONEWEB-0133             
1 47279U 20100X   22330.76253865  .00000389  00000+0  10458-2 0  9993
2 47279  87.8981 248.5674 0001732  78.9365 281.1958 13.12442855 94427
ONEWEB-0134             
1 47280U 20100Y   22330.73074029 -.00000707  00000+0 -19994-2 0  9995
2 47280  87.8962 248.5811 0002014  81.0325 279.1032 13.12442012 94397
ONEWEB-0135             
1 47281U 20100Z   22330.69900857  .00001800  00000+0  49673-2 0  9998
2 47281  87.8987 248.5648 0001893  72.0481 288.0853 13.12448984 94417
ONEWEB-0136             
1 47282U 20100AA  22330.72015772 -.00000277  00000+0 -80405-3 0  9994
2 47282  87.8944 248.6303 0002643  85.5530 274.5900 13.12443420 94343
ONEWEB-0137             
1 47283U 20100AB  22330.75614871  .00000022  00000+0  26582-4 0  9996
2 47283  87.8946 248.5869 0001866  70.1246 290.0083 13.12444166 94255
ONEWEB-0138             
1 47284U 20100AC  22330.73285544 -.00000659  00000+0 -18670-2 0  9991
2 47284  87.8944 248.6033 0001915  76.7679 283.3663 13.12442097 94334
ONEWEB-0139             
1 47285U 20100AD  22330.70533338  .00000181  00000+0  46831-3 0  9995
2 47285  87.8945 248.6472 0001923  83.0234 277.1113 13.12444197 94402
ONEWEB-0140             
1 47286U 20100AE  22330.72652374 -.00000380  00000+0 -10905-2 0  9995
2 47286  87.8947 248.5771 0001925  79.1012 281.0333 13.12439258 94374
ONEWEB-0141             
1 47287U 20100AF  22330.74877527  .00000026  00000+0  37210-4 0  9992
2 47287  87.8946 248.5724 0001828  64.4040 295.7277 13.12442634 94362
ONEWEB-0142             
1 47288U 20100AG  22330.74027158 -.00000197  00000+0 -58365-3 0  9994
2 47288  87.8948 248.6239 0001868  71.7867 288.3465 13.12440973 94359
ONEWEB-0143             
1 47289U 20100AH  22330.69476742  .00000472  00000+0  12767-2 0  9995
2 47289  87.8945 248.5955 0001695  77.0631 283.0687 13.12441804 94326
ONEWEB-0144             
1 47290U 20100AJ  22330.74344434 -.00000353  00000+0 -10177-2 0  9998
2 47290  87.8944 248.5998 0002051  79.6394 280.4965 13.12444461 94259
ONEWEB-0145             
1 47291U 20100AK  22330.79004397 -.00000157  00000+0 -47125-3 0  9991
2 47291  87.8981 248.5610 0001826  72.4171 287.7157 13.12442808 94453
ONEWEB-0146             
1 47292U 20100AL  22330.70956726  .00000051  00000+0  10640-3 0  9998
2 47292  87.8949 248.6168 0001188  86.2116 273.9148 13.12444072 94351
ONEWEB-0147             
1 47293U 20100AM  22330.75403769  .00000209  00000+0  54589-3 0  9993
2 47293  87.8946 248.5739 0002183  82.5931 277.5446 13.12440282 94251
ONEWEB-0115             
1 48042U 21025A   22330.72831781 -.00000187  00000+0 -54602-3 0  9992
2 48042  87.9056 218.2033 0001458  84.9744 275.1551 13.13469817 83143
ONEWEB-0152             
1 48043U 21025B   22330.74100810 -.00000001  00000+0 -38687-4 0  9998
2 48043  87.9087 218.1908 0001654  80.8894 279.2422 13.13472282 83105
ONEWEB-0153             
1 48044U 21025C   22330.71773669 -.00000314  00000+0 -89391-3 0  9998
2 48044  87.9058 218.1824 0001704  75.6353 284.4966 13.13471364 83098
ONEWEB-0154             
1 48045U 21025D   22330.71562369 -.00000298  00000+0 -85073-3 0  9996
2 48045  87.9005 218.2308 0001641  77.5005 282.6308 13.13469882 83052
ONEWEB-0116             
1 48046U 21025E   22330.75795104  .00000630  00000+0  16905-2 0  9991
2 48046  87.9022 218.2158 0001285  84.1043 276.0232 13.13470041 83204
ONEWEB-0150             
1 48047U 21025F   22330.73041625 -.00000192  00000+0 -56193-3 0  9991
2 48047  87.9051 218.1992 0001713  67.2516 292.8794 13.13473362 83090
ONEWEB-0107             
1 48048U 21025G   22330.73253418 -.00000183  00000+0 -53549-3 0  9999
2 48048  87.9049 218.1979 0001970  66.2708 293.8628 13.13473199 83073
ONEWEB-0101             
1 48049U 21025H   22330.69660350 -.00000220  00000+0 -63640-3 0  9997
2 48049  87.9071 218.2107 0001531  76.2469 283.8831 13.13462267 83047
